PHOENIX
1 45258U 98067RB  21033.56260567  .00009640  00000-0  15367-3 0  9994
2 45258  51.6399 282.5330 0006683 114.0854 246.0836 15.53936948 54212
